{"type": "FeatureCollection", "features": [ {"type": "Feature", "properties": {"norad_id": 29953, "name": "FENGYUN 1C DEB", "group": "fengyun-1c-debris", "lat": 52.15719469446102, "lon": 164.5802818130663, "alt_km": 981.1877834928955, "timestamp": "2025-12-11T22:43:47.541468+00:00", "meta": {"OBJECT_NAME": "FENGYUN 1C DEB", "OBJECT_ID": "1999-025KB", "EPOCH": "2025-12-11T12:20:41.274240", "MEAN_MOTION": 13.90844772, "ECCENTRICITY": 0.0105534, "INCLINATION": 98.9372, "RA_OF_ASC_NODE": 332.4777, "ARG_OF_PERICENTER": 270.0368, "MEAN_ANOMALY": 212.1497, "EPHEMERIS_TYPE": 0, "CLASSIFICATION_TYPE": "U", "NORAD_CAT_ID": 29953, "ELEMENT_SET_NO": 999, "REV_AT_EPOCH": 95845, "BSTAR": 0.00062825125, "MEAN_MOTION_DOT": 7.79e-06, "MEAN_MOTION_DDOT": 0}, "tle": {"line1": "1 29953U 99025KB  25345.51436660  .00000779  00000+0  62825-3 0  9991", "line2": "2 29953  98.9372 332.4777 0105534 270.0368 212.1497 13.90844772958457"}}, "geometry": {"type": "Point", "coordinates": [164.5802818130663, 52.15719469446102]}}, {"type": "Feature", "properties": {"norad_id": 29954, "name": "FENGYUN 1C DEB", "group": "fengyun-1c-debris", "lat": -43.244681021978074, "lon": 33.600672672246205, "alt_km": 746.0768643051715, "timestamp": "2025-12-11T22:43:47.541479+00:00", "meta": {"OBJECT_NAME": "FENGYUN 1C DEB", "OBJECT_ID": "1999-025KC", "EPOCH": "2025-12-11T12:53:17.479968", "MEAN_MOTION": 14.34220514, "ECCENTRICITY": 0.00742985, "INCLINATION": 100.1512, "RA_OF_ASC_NODE": 23.4187, "ARG_OF_PERICENTER": 272.6649, "MEAN_ANOMALY": 86.6027, "EPHEMERIS_TYPE": 0, "CLASSIFICATION_TYPE": "U", "NORAD_CAT_ID": 29954, "ELEMENT_SET_NO": 999, "REV_AT_EPOCH": 98170, "BSTAR": 0.0013685143, "MEAN_MOTION_DOT": 3.902e-05, "MEAN_MOTION_DDOT": 0}, "tle": {"line1": "1 29954U 99025KC  25345.53700787  .00003902  00000+0  13685-2 0  9998", "line2": "2 29954 100.1512  23.4187 0074298 272.6649  86.6027 14.34220514981702"}}, "geometry": {"type": "Point", "coordinates": [33.600672672246205, -43.244681021978074]}}, {"type": "Feature", "properties": {"norad_id": 29955, "name": "FENGYUN 1C DEB", "group": "fengyun-1c-debris", "lat": 36.00513266489619, "lon": 59.73317383068922, "alt_km": 766.2764855543819, "timestamp": "2025-12-11T22:43:47.541489+00:00", "meta": {"OBJECT_NAME": "FENGYUN 1C DEB", "OBJECT_ID": "1999-025KD", "EPOCH": "2025-12-11T04:20:32.384832", "MEAN_MOTION": 14.38218205, "ECCENTRICITY": 0.00075196, "INCLINATION": 99.2734, "RA_OF_ASC_NODE": 65.7254, "ARG_OF_PERICENTER": 252.6953, "MEAN_ANOMALY": 139.3297, "EPHEMERIS_TYPE": 0, "CLASSIFICATION_TYPE": "U", "NORAD_CAT_ID": 29955, "ELEMENT_SET_NO": 999, "REV_AT_EPOCH": 98039, "BSTAR": 0.0023547583, "MEAN_MOTION_DOT": 7.113e-05, "MEAN_MOTION_DDOT": 0}, "tle": {"line1": "1 29955U 99025KD  25345.18093038  .00007113  00000+0  23548-2 0  9991", "line2": "2 29955  99.2734  65.7254 0007519 252.6953 139.3297 14.38218205980396"}}, "geometry": {"type": "Point", "coordinates": [59.73317383068922, 36.00513266489619]}}, {"type": "Feature", "properties": {"norad_id": 29956, "name": "FENGYUN 1C DEB", "group": "fengyun-1c-debris", "lat": -11.722085125259046, "lon": -167.01546950875147, "alt_km": 915.4441680177661, "timestamp": "2025-12-11T22:43:47.541499+00:00", "meta": {"OBJECT_NAME": "FENGYUN 1C DEB", "OBJECT_ID": "1999-025KE", "EPOCH": "2025-12-11T01:27:30.407040", "MEAN_MOTION": 14.06170679, "ECCENTRICITY": 0.00538312, "INCLINATION": 98.792, "RA_OF_ASC_NODE": 13.9642, "ARG_OF_PERICENTER": 22.2749, "MEAN_ANOMALY": 5.1868, "EPHEMERIS_TYPE": 0, "CLASSIFICATION_TYPE": "U", "NORAD_CAT_ID": 29956, "ELEMENT_SET_NO": 999, "REV_AT_EPOCH": 97026, "BSTAR": -4.089126e-06, "MEAN_MOTION_DOT": -5e-07, "MEAN_MOTION_DDOT": 0}, "tle": {"line1": "1 29956U 99025KE  25345.06076860 -.00000050  00000+0 -40891-5 0  9991", "line2": "2 29956  98.7920  13.9642 0053831  22.2749   5.1868 14.06170679970262"}}, "geometry": {"type": "Point", "coordinates": [-167.01546950875147, -11.722085125259046]}}, {"type": "Feature", "properties": {"norad_id": 29957, "name": "FENGYUN 1C DEB", "group": "fengyun-1c-debris", "lat": 62.19224709249304, "lon": -49.80668758286443, "alt_km": 703.9967544167857, "timestamp": "2025-12-11T22:43:47.541510+00:00", "meta": {"OBJECT_NAME": "FENGYUN 1C DEB", "OBJECT_ID": "1999-025KF", "EPOCH": "2025-12-11T07:35:10.945824", "MEAN_MOTION": 14.51042458, "ECCENTRICITY": 0.00380595, "INCLINATION": 98.9202, "RA_OF_ASC_NODE": 112.1995, "ARG_OF_PERICENTER": 182.1254, "MEAN_ANOMALY": 240.4252, "EPHEMERIS_TYPE": 0, "CLASSIFICATION_TYPE": "U", "NORAD_CAT_ID": 29957, "ELEMENT_SET_NO": 999, "REV_AT_EPOCH": 97471, "BSTAR": 0.010087126, "MEAN_MOTION_DOT": 0.00040495, "MEAN_MOTION_DDOT": 0}, "tle": {"line1": "1 29957U 99025KF  25345.31609891  .00040495  00000+0  10087-1 0  9991", "line2": "2 29957  98.9202 112.1995 0038059 182.1254 240.4252 14.51042458974711"}}, "geometry": {"type": "Point", "coordinates": [-49.80668758286443, 62.19224709249304]}}, {"type": "Feature", "properties": {"norad_id": 29958, "name": "FENGYUN 1C DEB", "group": "fengyun-1c-debris", "lat": 44.44304146226855, "lon": -171.05796300281736, "alt_km": 877.0799531196162, "timestamp": "2025-12-11T22:43:47.541524+00:00", "meta": {"OBJECT_NAME": "FENGYUN 1C DEB", "OBJECT_ID": "1999-025KG", "EPOCH": "2025-12-11T11:54:29.421504", "MEAN_MOTION": 14.14454842, "ECCENTRICITY": 0.00544139, "INCLINATION": 98.6686, "RA_OF_ASC_NODE": 359.8995, "ARG_OF_PERICENTER": 336.8298, "MEAN_ANOMALY": 23.0423, "EPHEMERIS_TYPE": 0, "CLASSIFICATION_TYPE": "U", "NORAD_CAT_ID": 29958, "ELEMENT_SET_NO": 999, "REV_AT_EPOCH": 97433, "BSTAR": 0.00052913275, "MEAN_MOTION_DOT": 9.85e-06, "MEAN_MOTION_DDOT": 0}, "tle": {"line1": "1 29958U 99025KG  25345.49617386  .00000985  00000+0  52913-3 0  9995", "line2": "2 29958  98.6686 359.8995 0054413 336.8298  23.0423 14.14454842974339"}}, "geometry": {"type": "Point", "coordinates": [-171.05796300281736, 44.44304146226855]}}, {"type": "Feature", "properties": {"norad_id": 29959, "name": "FENGYUN 1C DEB", "group": "fengyun-1c-debris", "lat": 43.63630214078064, "lon": -154.86542120300493, "alt_km": 898.5948969517276, "timestamp": "2025-12-11T22:43:47.541535+00:00", "meta": {"OBJECT_NAME": "FENGYUN 1C DEB", "OBJECT_ID": "1999-025KH", "EPOCH": "2025-12-11T14:16:26.557248", "MEAN_MOTION": 14.06014822, "ECCENTRICITY": 0.00417228, "INCLINATION": 98.8085, "RA_OF_ASC_NODE": 16.2898, "ARG_OF_PERICENTER": 331.2606, "MEAN_ANOMALY": 181.8835, "EPHEMERIS_TYPE": 0, "CLASSIFICATION_TYPE": "U", "NORAD_CAT_ID": 29959, "ELEMENT_SET_NO": 999, "REV_AT_EPOCH": 96924, "BSTAR": 0.00013385528, "MEAN_MOTION_DOT": 1.78e-06, "MEAN_MOTION_DDOT": 0}, "tle": {"line1": "1 29959U 99025KH  25345.59475182  .00000178  00000+0  13386-3 0  9998", "line2": "2 29959  98.8085  16.2898 0041722 331.2606 181.8835 14.06014822969247"}}, "geometry": {"type": "Point", "coordinates": [-154.86542120300493, 43.63630214078064]}}, {"type": "Feature", "properties": {"norad_id": 29960, "name": "FENGYUN 1C DEB", "group": "fengyun-1c-debris", "lat": -0.23641438820694735, "lon": 151.50707014780647, "alt_km": 860.7761772012309, "timestamp": "2025-12-11T22:43:47.541546+00:00", "meta": {"OBJECT_NAME": "FENGYUN 1C DEB", "OBJECT_ID": "1999-025KJ", "EPOCH": "2025-12-11T10:43:45.146784", "MEAN_MOTION": 14.16399705, "ECCENTRICITY": 0.00909862, "INCLINATION": 98.6144, "RA_OF_ASC_NODE": 331.059, "ARG_OF_PERICENTER": 290.0449, "MEAN_ANOMALY": 222.8416, "EPHEMERIS_TYPE": 0, "CLASSIFICATION_TYPE": "U", "NORAD_CAT_ID": 29960, "ELEMENT_SET_NO": 999, "REV_AT_EPOCH": 97436, "BSTAR": 0.00077080462, "MEAN_MOTION_DOT": 1.551e-05, "MEAN_MOTION_DDOT": 0}, "tle": {"line1": "1 29960U 99025KJ  25345.44705031  .00001551  00000+0  77080-3 0  9990", "line2": "2 29960  98.6144 331.0590 0090986 290.0449 222.8416 14.16399705974360"}}, "geometry": {"type": "Point", "coordinates": [151.50707014780647, -0.23641438820694735]}}, {"type": "Feature", "properties": {"norad_id": 29961, "name": "FENGYUN 1C DEB", "group": "fengyun-1c-debris", "lat": -38.42578719328199, "lon": -119.49943498692174, "alt_km": 759.0360076333673, "timestamp": "2025-12-11T22:43:47.541556+00:00", "meta": {"OBJECT_NAME": "FENGYUN 1C DEB", "OBJECT_ID": "1999-025KK", "EPOCH": "2025-12-11T11:07:26.724864", "MEAN_MOTION": 14.2621295, "ECCENTRICITY": 0.00741901, "INCLINATION": 98.9485, "RA_OF_ASC_NODE": 232.826, "ARG_OF_PERICENTER": 308.6215, "MEAN_ANOMALY": 50.8338, "EPHEMERIS_TYPE": 0, "CLASSIFICATION_TYPE": "U", "NORAD_CAT_ID": 29961, "ELEMENT_SET_NO": 999, "REV_AT_EPOCH": 98291, "BSTAR": 0.00033156764, "MEAN_MOTION_DOT": 7.71e-06, "MEAN_MOTION_DDOT": 0}, "tle": {"line1": "1 29961U 99025KK  25345.46350376  .00000771  00000+0  33157-3 0  9991", "line2": "2 29961  98.9485 232.8260 0074190 308.6215  50.8338 14.26212950982919"}}, "geometry": {"type": "Point", "coordinates": [-119.49943498692174, -38.42578719328199]}}, {"type": "Feature", "properties": {"norad_id": 29962, "name": "FENGYUN 1C DEB", "group": "fengyun-1c-debris", "lat": -6.4913616276484465, "lon": 173.13805087851287, "alt_km": 809.0622275048836, "timestamp": "2025-12-11T22:43:47.541566+00:00", "meta": {"OBJECT_NAME": "FENGYUN 1C DEB", "OBJECT_ID": "1999-025KL", "EPOCH": "2025-12-10T23:47:36.352608", "MEAN_MOTION": 14.07155248, "ECCENTRICITY": 0.0109646, "INCLINATION": 98.7686, "RA_OF_ASC_NODE": 353.2172, "ARG_OF_PERICENTER": 226.1714, "MEAN_ANOMALY": 162.4508, "EPHEMERIS_TYPE": 0, "CLASSIFICATION_TYPE": "U", "NORAD_CAT_ID": 29962, "ELEMENT_SET_NO": 999, "REV_AT_EPOCH": 96973, "BSTAR": 0.00016336033, "MEAN_MOTION_DOT": 2.46e-06, "MEAN_MOTION_DDOT": 0}, "tle": {"line1": "1 29962U 99025KL  25344.99139297  .00000246  00000+0  16336-3 0  9993", "line2": "2 29962  98.7686 353.2172 0109646 226.1714 162.4508 14.07155248969733"}}, "geometry": {"type": "Point", "coordinates": [173.13805087851287, -6.4913616276484465]}}]}